{
"type": "FeatureCollection",
"name": "hotspots",
"crs": { "type": "name", "properties": { "name": "urn:ogc:def:crs:OGC:1.3:CRS84" } },
"features": [
{ "type": "Feature", "properties": { "rank": 1, "lon": 83.47236761787002, "lat": 20.718865727246854, "score": 711.94643300806638, "area_km2": 1.0, "bounds_minx": 132020.0, "bounds_miny": 2294540.0, "bounds_maxx": 133020.0, "bounds_maxy": 2295540.0 }, "geometry": { "type": "Point", "coordinates": [ 83.47236761787002, 20.718865727246854 ] } },
{ "type": "Feature", "properties": { "rank": 2, "lon": 82.903942696043657, "lat": 20.462760195560573, "score": 510.23416953734704, "area_km2": 1.0, "bounds_minx": 72020.0, "bounds_miny": 2267540.0, "bounds_maxx": 73020.0, "bounds_maxy": 2268540.0 }, "geometry": { "type": "Point", "coordinates": [ 82.903942696043657, 20.462760195560573 ] } },
{ "type": "Feature", "properties": { "rank": 3, "lon": 83.587000528272057, "lat": 20.73922744499593, "score": 497.45391799672211, "area_km2": 1.0, "bounds_minx": 144020.0, "bounds_miny": 2296540.0, "bounds_maxx": 145020.0, "bounds_maxy": 2297540.0 }, "geometry": { "type": "Point", "coordinates": [ 83.587000528272057, 20.73922744499593 ] } },
{ "type": "Feature", "properties": { "rank": 4, "lon": 82.932633666646524, "lat": 20.463434789111687, "score": 443.65710901253624, "area_km2": 1.0, "bounds_minx": 75020.0, "bounds_miny": 2267540.0, "bounds_maxx": 76020.0, "bounds_maxy": 2268540.0 }, "geometry": { "type": "Point", "coordinates": [ 82.932633666646524, 20.463434789111687 ] } },
{ "type": "Feature", "properties": { "rank": 5, "lon": 83.530090103113935, "lat": 20.711017043193902, "score": 442.96484727947973, "area_km2": 1.0, "bounds_minx": 138020.0, "bounds_miny": 2293540.0, "bounds_maxx": 139020.0, "bounds_maxy": 2294540.0 }, "geometry": { "type": "Point", "coordinates": [ 83.530090103113935, 20.711017043193902 ] } }
]
}
