{
"type": "FeatureCollection",
"name": "hotspots",
"crs": { "type": "name", "properties": { "name": "urn:ogc:def:crs:OGC:1.3:CRS84" } },
"features": [
{ "type": "Feature", "properties": { "rank": 1, "lon": 86.899168646892846, "lat": 20.989781179691953, "score": 1481.370233476162, "area_km2": 1.0, "bounds_minx": 489020.0, "bounds_miny": 2320520.0, "bounds_maxx": 490020.0, "bounds_maxy": 2321520.0 }, "geometry": { "type": "Point", "coordinates": [ 86.899168646892846, 20.989781179691953 ] } },
{ "type": "Feature", "properties": { "rank": 2, "lon": 86.908817344734643, "lat": 20.944608244295193, "score": 1135.6938239047304, "area_km2": 1.0, "bounds_minx": 490020.0, "bounds_miny": 2315520.0, "bounds_maxx": 491020.0, "bounds_maxy": 2316520.0 }, "geometry": { "type": "Point", "coordinates": [ 86.908817344734643, 20.944608244295193 ] } },
{ "type": "Feature", "properties": { "rank": 3, "lon": 86.755128424046418, "lat": 20.817956918473079, "score": 1045.8151529729366, "area_km2": 1.0, "bounds_minx": 474020.0, "bounds_miny": 2301520.0, "bounds_maxx": 475020.0, "bounds_maxy": 2302520.0 }, "geometry": { "type": "Point", "coordinates": [ 86.755128424046418, 20.817956918473079 ] } },
{ "type": "Feature", "properties": { "rank": 4, "lon": 86.956932663160231, "lat": 20.863305438340987, "score": 1031.2123751789331, "area_km2": 1.0, "bounds_minx": 495020.0, "bounds_miny": 2306520.0, "bounds_maxx": 496020.0, "bounds_maxy": 2307520.0 }, "geometry": { "type": "Point", "coordinates": [ 86.956932663160231, 20.863305438340987 ] } },
{ "type": "Feature", "properties": { "rank": 5, "lon": 86.793421453234743, "lat": 20.926436205665151, "score": 979.60651916265488, "area_km2": 1.0, "bounds_minx": 478020.0, "bounds_miny": 2313520.0, "bounds_maxx": 479020.0, "bounds_maxy": 2314520.0 }, "geometry": { "type": "Point", "coordinates": [ 86.793421453234743, 20.926436205665151 ] } }
]
}
