{
"type": "FeatureCollection",
"name": "hotspots",
"crs": { "type": "name", "properties": { "name": "urn:ogc:def:crs:OGC:1.3:CRS84" } },
"features": [
{ "type": "Feature", "properties": { "rank": 1, "lon": 85.733490094733725, "lat": 20.228020321678287, "score": 902.5271568056196, "area_km2": 1.0, "bounds_minx": 367200.0, "bounds_miny": 2236720.0, "bounds_maxx": 368200.0, "bounds_maxy": 2237720.0 }, "geometry": { "type": "Point", "coordinates": [ 85.733490094733725, 20.228020321678287 ] } },
{ "type": "Feature", "properties": { "rank": 2, "lon": 85.732682881689897, "lat": 20.327396338139629, "score": 779.74951155763119, "area_km2": 1.0, "bounds_minx": 367200.0, "bounds_miny": 2247720.0, "bounds_maxx": 368200.0, "bounds_maxy": 2248720.0 }, "geometry": { "type": "Point", "coordinates": [ 85.732682881689897, 20.327396338139629 ] } },
{ "type": "Feature", "properties": { "rank": 3, "lon": 85.810061432677642, "lat": 20.228556102355967, "score": 658.62357950268779, "area_km2": 1.0, "bounds_minx": 375200.0, "bounds_miny": 2236720.0, "bounds_maxx": 376200.0, "bounds_maxy": 2237720.0 }, "geometry": { "type": "Point", "coordinates": [ 85.810061432677642, 20.228556102355967 ] } },
{ "type": "Feature", "properties": { "rank": 4, "lon": 85.963390680856662, "lat": 20.202422560334561, "score": 636.69645278900862, "area_km2": 1.0, "bounds_minx": 391200.0, "bounds_miny": 2233720.0, "bounds_maxx": 392200.0, "bounds_maxy": 2234720.0 }, "geometry": { "type": "Point", "coordinates": [ 85.963390680856662, 20.202422560334561 ] } },
{ "type": "Feature", "properties": { "rank": 5, "lon": 85.105902611280285, "lat": 19.888155562605366, "score": 626.97299426794052, "area_km2": 1.0, "bounds_minx": 301200.0, "bounds_miny": 2199720.0, "bounds_maxx": 302200.0, "bounds_maxy": 2200720.0 }, "geometry": { "type": "Point", "coordinates": [ 85.105902611280285, 19.888155562605366 ] } }
]
}
