{
"type": "FeatureCollection",
"name": "hotspots",
"crs": { "type": "name", "properties": { "name": "urn:ogc:def:crs:OGC:1.3:CRS84" } },
"features": [
{ "type": "Feature", "properties": { "rank": 1, "lon": 82.695414776317151, "lat": 20.10100576264043, "score": 868.53381006093696, "area_km2": 1.0, "bounds_minx": 49180.0, "bounds_miny": 2227980.0, "bounds_maxx": 50180.0, "bounds_maxy": 2228980.0 }, "geometry": { "type": "Point", "coordinates": [ 82.695414776317151, 20.10100576264043 ] } },
{ "type": "Feature", "properties": { "rank": 2, "lon": 82.656501105728566, "lat": 20.469729269298643, "score": 423.97765919647645, "area_km2": 1.0, "bounds_minx": 46180.0, "bounds_miny": 2268980.0, "bounds_maxx": 47180.0, "bounds_maxy": 2269980.0 }, "geometry": { "type": "Point", "coordinates": [ 82.656501105728566, 20.469729269298643 ] } },
{ "type": "Feature", "properties": { "rank": 3, "lon": 82.756566044061572, "lat": 20.309891962374291, "score": 423.22638459829614, "area_km2": 1.0, "bounds_minx": 56180.0, "bounds_miny": 2250980.0, "bounds_maxx": 57180.0, "bounds_maxy": 2251980.0 }, "geometry": { "type": "Point", "coordinates": [ 82.756566044061572, 20.309891962374291 ] } },
{ "type": "Feature", "properties": { "rank": 4, "lon": 82.551340277623183, "lat": 20.46706494932172, "score": 419.63838195800781, "area_km2": 1.0, "bounds_minx": 35180.0, "bounds_miny": 2268980.0, "bounds_maxx": 36180.0, "bounds_maxy": 2269980.0 }, "geometry": { "type": "Point", "coordinates": [ 82.551340277623183, 20.46706494932172 ] } },
{ "type": "Feature", "properties": { "rank": 5, "lon": 82.356098865465498, "lat": 20.597153955901625, "score": 412.83217999339104, "area_km2": 1.0, "bounds_minx": 15180.0, "bounds_miny": 2283980.0, "bounds_maxx": 16180.0, "bounds_maxy": 2284980.0 }, "geometry": { "type": "Point", "coordinates": [ 82.356098865465498, 20.597153955901625 ] } }
]
}
