{
"type": "FeatureCollection",
"name": "hotspots",
"crs": { "type": "name", "properties": { "name": "urn:ogc:def:crs:OGC:1.3:CRS84" } },
"features": [
{ "type": "Feature", "properties": { "rank": 1, "lon": 83.918138488484331, "lat": 20.20427242405491, "score": 731.63330273702741, "area_km2": 1.0, "bounds_minx": 177420.0, "bounds_miny": 2236580.0, "bounds_maxx": 178420.0, "bounds_maxy": 2237580.0 }, "geometry": { "type": "Point", "coordinates": [ 83.918138488484331, 20.20427242405491 ] } },
{ "type": "Feature", "properties": { "rank": 2, "lon": 84.23900798724226, "lat": 20.444348844444729, "score": 679.7812266953988, "area_km2": 1.0, "bounds_minx": 211420.0, "bounds_miny": 2262580.0, "bounds_maxx": 212420.0, "bounds_maxy": 2263580.0 }, "geometry": { "type": "Point", "coordinates": [ 84.23900798724226, 20.444348844444729 ] } },
{ "type": "Feature", "properties": { "rank": 3, "lon": 83.552346923918222, "lat": 19.881628370130706, "score": 579.99514404125512, "area_km2": 1.0, "bounds_minx": 138420.0, "bounds_miny": 2201580.0, "bounds_maxx": 139420.0, "bounds_maxy": 2202580.0 }, "geometry": { "type": "Point", "coordinates": [ 83.552346923918222, 19.881628370130706 ] } },
{ "type": "Feature", "properties": { "rank": 4, "lon": 83.69706908518468, "lat": 19.803147588132326, "score": 551.40282954089344, "area_km2": 1.0, "bounds_minx": 153420.0, "bounds_miny": 2192580.0, "bounds_maxx": 154420.0, "bounds_maxy": 2193580.0 }, "geometry": { "type": "Point", "coordinates": [ 83.69706908518468, 19.803147588132326 ] } },
{ "type": "Feature", "properties": { "rank": 5, "lon": 84.085125635009987, "lat": 20.47794676629746, "score": 536.91928239632398, "area_km2": 1.0, "bounds_minx": 195420.0, "bounds_miny": 2266580.0, "bounds_maxx": 196420.0, "bounds_maxy": 2267580.0 }, "geometry": { "type": "Point", "coordinates": [ 84.085125635009987, 20.47794676629746 ] } }
]
}
