{
"type": "FeatureCollection",
"name": "hotspots",
"crs": { "type": "name", "properties": { "name": "urn:ogc:def:crs:OGC:1.3:CRS84" } },
"features": [
{ "type": "Feature", "properties": { "rank": 1, "lon": 85.425482575676938, "lat": 21.874961307916305, "score": 860.0917595140636, "area_km2": 1.0, "bounds_minx": 336820.0, "bounds_miny": 2419320.0, "bounds_maxx": 337820.0, "bounds_maxy": 2420320.0 }, "geometry": { "type": "Point", "coordinates": [ 85.425482575676938, 21.874961307916305 ] } },
{ "type": "Feature", "properties": { "rank": 2, "lon": 85.385863792265894, "lat": 21.955866335593726, "score": 821.08277741074562, "area_km2": 1.0, "bounds_minx": 332820.0, "bounds_miny": 2428320.0, "bounds_maxx": 333820.0, "bounds_maxy": 2429320.0 }, "geometry": { "type": "Point", "coordinates": [ 85.385863792265894, 21.955866335593726 ] } },
{ "type": "Feature", "properties": { "rank": 3, "lon": 85.442173115307327, "lat": 22.118988119675915, "score": 736.45834341645241, "area_km2": 1.0, "bounds_minx": 338820.0, "bounds_miny": 2446320.0, "bounds_maxx": 339820.0, "bounds_maxy": 2447320.0 }, "geometry": { "type": "Point", "coordinates": [ 85.442173115307327, 22.118988119675915 ] } },
{ "type": "Feature", "properties": { "rank": 4, "lon": 85.325867204151152, "lat": 22.117836976395626, "score": 706.39685391634703, "area_km2": 1.0, "bounds_minx": 326820.0, "bounds_miny": 2446320.0, "bounds_maxx": 327820.0, "bounds_maxy": 2447320.0 }, "geometry": { "type": "Point", "coordinates": [ 85.325867204151152, 22.117836976395626 ] } },
{ "type": "Feature", "properties": { "rank": 5, "lon": 85.403810093639933, "lat": 22.082489870534683, "score": 689.50881240516901, "area_km2": 1.0, "bounds_minx": 334820.0, "bounds_miny": 2442320.0, "bounds_maxx": 335820.0, "bounds_maxy": 2443320.0 }, "geometry": { "type": "Point", "coordinates": [ 85.403810093639933, 22.082489870534683 ] } }
]
}
