{
"type": "FeatureCollection",
"name": "hotspots",
"crs": { "type": "name", "properties": { "name": "urn:ogc:def:crs:OGC:1.3:CRS84" } },
"features": [
{ "type": "Feature", "properties": { "rank": 1, "lon": 81.868696727144908, "lat": 20.004450951705721, "score": 616.48140244744718, "area_km2": 1.0, "bounds_minx": -37800.0, "bounds_miny": 2219720.0, "bounds_maxx": -36800.0, "bounds_maxy": 2220720.0 }, "geometry": { "type": "Point", "coordinates": [ 81.868696727144908, 20.004450951705721 ] } },
{ "type": "Feature", "properties": { "rank": 2, "lon": 82.147693295164061, "lat": 19.606802711146756, "score": 509.86106751859188, "area_km2": 1.0, "bounds_minx": -9800.0, "bounds_miny": 2174720.0, "bounds_maxx": -8800.0, "bounds_maxy": 2175720.0 }, "geometry": { "type": "Point", "coordinates": [ 82.147693295164061, 19.606802711146756 ] } },
{ "type": "Feature", "properties": { "rank": 3, "lon": 82.050479986517672, "lat": 19.982604172729417, "score": 505.29603878222406, "area_km2": 1.0, "bounds_minx": -18800.0, "bounds_miny": 2216720.0, "bounds_maxx": -17800.0, "bounds_maxy": 2217720.0 }, "geometry": { "type": "Point", "coordinates": [ 82.050479986517672, 19.982604172729417 ] } },
{ "type": "Feature", "properties": { "rank": 4, "lon": 82.271965462467321, "lat": 19.907545666281496, "score": 501.95076036453247, "area_km2": 1.0, "bounds_minx": 4200.0, "bounds_miny": 2207720.0, "bounds_maxx": 5200.0, "bounds_maxy": 2208720.0 }, "geometry": { "type": "Point", "coordinates": [ 82.271965462467321, 19.907545666281496 ] } },
{ "type": "Feature", "properties": { "rank": 5, "lon": 82.183548785597907, "lat": 19.679864653929904, "score": 492.8097735112533, "area_km2": 1.0, "bounds_minx": -5800.0, "bounds_miny": 2182720.0, "bounds_maxx": -4800.0, "bounds_maxy": 2183720.0 }, "geometry": { "type": "Point", "coordinates": [ 82.183548785597907, 19.679864653929904 ] } }
]
}
