{
"type": "FeatureCollection",
"name": "hotspots",
"crs": { "type": "name", "properties": { "name": "urn:ogc:def:crs:OGC:1.3:CRS84" } },
"features": [
{ "type": "Feature", "properties": { "rank": 1, "lon": 84.137959416397933, "lat": 18.804263249283011, "score": 515.12725982628763, "area_km2": 1.0, "bounds_minx": 197820.0, "bounds_miny": 2081100.0, "bounds_maxx": 198820.0, "bounds_maxy": 2082100.0 }, "geometry": { "type": "Point", "coordinates": [ 84.137959416397933, 18.804263249283011 ] } },
{ "type": "Feature", "properties": { "rank": 2, "lon": 83.98217400697807, "lat": 19.551099692687362, "score": 512.11150468885899, "area_km2": 1.0, "bounds_minx": 182820.0, "bounds_miny": 2164100.0, "bounds_maxx": 183820.0, "bounds_maxy": 2165100.0 }, "geometry": { "type": "Point", "coordinates": [ 83.98217400697807, 19.551099692687362 ] } },
{ "type": "Feature", "properties": { "rank": 3, "lon": 84.081247187028211, "lat": 18.794355738082544, "score": 510.32675842626486, "area_km2": 1.0, "bounds_minx": 191820.0, "bounds_miny": 2080100.0, "bounds_maxx": 192820.0, "bounds_maxy": 2081100.0 }, "geometry": { "type": "Point", "coordinates": [ 84.081247187028211, 18.794355738082544 ] } },
{ "type": "Feature", "properties": { "rank": 4, "lon": 84.329812409923605, "lat": 19.258602767121825, "score": 421.16294240951538, "area_km2": 1.0, "bounds_minx": 218820.0, "bounds_miny": 2131100.0, "bounds_maxx": 219820.0, "bounds_maxy": 2132100.0 }, "geometry": { "type": "Point", "coordinates": [ 84.329812409923605, 19.258602767121825 ] } },
{ "type": "Feature", "properties": { "rank": 5, "lon": 84.020087776224784, "lat": 19.560757412845827, "score": 417.46645194292068, "area_km2": 1.0, "bounds_minx": 186820.0, "bounds_miny": 2165100.0, "bounds_maxx": 187820.0, "bounds_maxy": 2166100.0 }, "geometry": { "type": "Point", "coordinates": [ 84.020087776224784, 19.560757412845827 ] } }
]
}
